KUIPER-00071            
1 64818U 25151C   25298.05601997  .00000223  00000+0  58581-4 0  9991
2 64818  51.8991 182.8436 0008505 132.1030 228.0657 14.79936233 15184
KUIPER-00072            
1 64819U 25151D   25298.16668980 -.01848045  00000+0 -13617+0 0  9990
2 64819  51.8884 163.9864 0003306 137.3720  33.9611 15.06522515  4971
KUIPER-00073            
1 64820U 25151E   25297.88726852  .00005794  00000+0  78750-3 0  9999
2 64820  51.8990 183.5900 0013795 160.5085 199.6408 14.79940193 16348
KUIPER-00074            
1 64821U 25151F   25298.16668980 -.00003755  00000+0 -46134-3 0  9997
2 64821  51.8988 169.8677 0010127 168.4262 168.3487 14.80082982  3547
KUIPER-00075            
1 64822U 25151G   25297.90467860  .00071090  00000+0  17806-2 0  9991
2 64822  51.8731 161.1557 0006175 138.5799 221.5658 15.39404983 15478
KUIPER-00076            
1 64823U 25151H   25298.03317090 -.00003790  00000+0 -46843-3 0  9994
2 64823  51.8997 172.9528 0003591 171.4707 188.6317 14.79916751 15328
KUIPER-00077            
1 64824U 25151J   25298.09525259  .00000282  00000+0  66218-4 0  9999
2 64824  51.9015 177.6778 0006812 128.3027 231.8549 14.79888758 15261
KUIPER-00078            
1 64825U 25151K   25297.86154383  .00004947  00000+0  67752-3 0  9995
2 64825  51.8989 176.2116 0007673 187.2104 172.8749 14.79926895 15269
